{"fetched_at":"2026-07-15T06:35:42.366Z","source":"https://celestrak.org/NORAD/elements/gp.php?GROUP=spire&FORMAT=JSON","constellation":"spire","records":[{"OBJECT_NAME":"LEMUR-1","OBJECT_ID":"2014-033AL","EPOCH":"2026-07-14T21:57:09.917568","CLASSIFICATION_TYPE":"U","MEAN_MOTION":14.85336384,"ECCENTRICITY":0.00478024,"INCLINATION":97.7909,"RA_OF_ASC_NODE":345.11,"ARG_OF_PERICENTER":348.8746,"MEAN_ANOMALY":11.1407,"EPHEMERIS_TYPE":0,"NORAD_CAT_ID":40044,"ELEMENT_SET_NO":999,"REV_AT_EPOCH":64958,"BSTAR":0.00009573447,"MEAN_MOTION_DOT":0.00000784,"MEAN_MOTION_DDOT":0},{"OBJECT_NAME":"LEMUR-2-GREENBERG","OBJECT_ID":"2017-042N","EPOCH":"2026-07-14T11:01:08.367168","CLASSIFICATION_TYPE":"U","MEAN_MOTION":15.32137916,"ECCENTRICITY":0.00071946,"INCLINATION":97.3823,"RA_OF_ASC_NODE":15.9753,"ARG_OF_PERICENTER":263.1794,"MEAN_ANOMALY":96.863,"EPHEMERIS_TYPE":0,"NORAD_CAT_ID":42837,"ELEMENT_SET_NO":999,"REV_AT_EPOCH":49256,"BSTAR":0.00032148482,"MEAN_MOTION_DOT":0.00009907,"MEAN_MOTION_DDOT":0},{"OBJECT_NAME":"LEMUR-2-ANDIS","OBJECT_ID":"2017-042P","EPOCH":"2026-07-14T17:59:16.108800","CLASSIFICATION_TYPE":"U","MEAN_MOTION":15.35912431,"ECCENTRICITY":0.00071837,"INCLINATION":97.3675,"RA_OF_ASC_NODE":16.5481,"ARG_OF_PERICENTER":259.4911,"MEAN_ANOMALY":100.5524,"EPHEMERIS_TYPE":0,"NORAD_CAT_ID":42838,"ELEMENT_SET_NO":999,"REV_AT_EPOCH":49268,"BSTAR":0.0003538359,"MEAN_MOTION_DOT":0.00012302,"MEAN_MOTION_DDOT":0},{"OBJECT_NAME":"LEMUR-2-MONSON","OBJECT_ID":"2017-042Q","EPOCH":"2026-07-14T11:05:29.758272","CLASSIFICATION_TYPE":"U","MEAN_MOTION":15.28740925,"ECCENTRICITY":0.00052931,"INCLINATION":97.4085,"RA_OF_ASC_NODE":15.9085,"ARG_OF_PERICENTER":249.0733,"MEAN_ANOMALY":110.994,"EPHEMERIS_TYPE":0,"NORAD_CAT_ID":42839,"ELEMENT_SET_NO":999,"REV_AT_EPOCH":49233,"BSTAR":0.00028794809,"MEAN_MOTION_DOT":0.00007974,"MEAN_MOTION_DDOT":0},{"OBJECT_NAME":"LEMUR-2-FURIAUS","OBJECT_ID":"2017-042R","EPOCH":"2026-07-14T22:17:49.056864","CLASSIFICATION_TYPE":"U","MEAN_MOTION":15.31125457,"ECCENTRICITY":0.00060642,"INCLINATION":97.3766,"RA_OF_ASC_NODE":14.3354,"ARG_OF_PERICENTER":331.3156,"MEAN_ANOMALY":28.7751,"EPHEMERIS_TYPE":0,"NORAD_CAT_ID":42840,"ELEMENT_SET_NO":999,"REV_AT_EPOCH":49245,"BSTAR":0.00032916749,"MEAN_MOTION_DOT":0.00009828,"MEAN_MOTION_DDOT":0},{"OBJECT_NAME":"LEMUR-2-PETERG","OBJECT_ID":"2017-042S","EPOCH":"2026-07-14T11:44:40.228800","CLASSIFICATION_TYPE":"U","MEAN_MOTION":15.35013227,"ECCENTRICITY":0.00032447,"INCLINATION":97.3988,"RA_OF_ASC_NODE":20.5866,"ARG_OF_PERICENTER":222.845,"MEAN_ANOMALY":137.2541,"EPHEMERIS_TYPE":0,"NORAD_CAT_ID":42841,"ELEMENT_SET_NO":999,"REV_AT_EPOCH":49262,"BSTAR":0.00033252832,"MEAN_MOTION_DOT":0.0001122,"MEAN_MOTION_DDOT":0},{"OBJECT_NAME":"LEMUR-2-DEMBITZ","OBJECT_ID":"2017-042T","EPOCH":"2026-07-14T22:46:14.439936","CLASSIFICATION_TYPE":"U","MEAN_MOTION":15.3110566,"ECCENTRICITY":0.00050535,"INCLINATION":97.3822,"RA_OF_ASC_NODE":17.4,"ARG_OF_PERICENTER":275.9305,"MEAN_ANOMALY":84.136,"EPHEMERIS_TYPE":0,"NORAD_CAT_ID":42842,"ELEMENT_SET_NO":999,"REV_AT_EPOCH":49259,"BSTAR":0.00030973791,"MEAN_MOTION_DOT":0.00009235,"MEAN_MOTION_DDOT":0},{"OBJECT_NAME":"LEMUR-2-ZACHARY","OBJECT_ID":"2017-042W","EPOCH":"2026-07-14T11:19:58.806624","CLASSIFICATION_TYPE":"U","MEAN_MOTION":15.52670272,"ECCENTRICITY":0.00025074,"INCLINATION":97.357,"RA_OF_ASC_NODE":27.7354,"ARG_OF_PERICENTER":253.1238,"MEAN_ANOMALY":106.974,"EPHEMERIS_TYPE":0,"NORAD_CAT_ID":42845,"ELEMENT_SET_NO":999,"REV_AT_EPOCH":49343,"BSTAR":0.00051719306,"MEAN_MOTION_DOT":0.00031854,"MEAN_MOTION_DDOT":0},{"OBJECT_NAME":"LEMUR-2-AMANDA-SVANTE","OBJECT_ID":"2021-034B","EPOCH":"2026-07-14T20:44:48.577632","CLASSIFICATION_TYPE":"U","MEAN_MOTION":15.35946605,"ECCENTRICITY":0.00046212,"INCLINATION":97.5754,"RA_OF_ASC_NODE":274.9119,"ARG_OF_PERICENTER":144.0064,"MEAN_ANOMALY":216.1491,"EPHEMERIS_TYPE":0,"NORAD_CAT_ID":48269,"ELEMENT_SET_NO":999,"REV_AT_EPOCH":28530,"BSTAR":0.00054550939,"MEAN_MOTION_DOT":0.00019036,"MEAN_MOTION_DDOT":0},{"OBJECT_NAME":"LEMUR-2-SPECIAL-K","OBJECT_ID":"2021-034F","EPOCH":"2026-07-14T18:16:40.633824","CLASSIFICATION_TYPE":"U","MEAN_MOTION":15.74566415,"ECCENTRICITY":0.00063296,"INCLINATION":97.5639,"RA_OF_ASC_NODE":284.8161,"ARG_OF_PERICENTER":214.5828,"MEAN_ANOMALY":145.5025,"EPHEMERIS_TYPE":0,"NORAD_CAT_ID":48273,"ELEMENT_SET_NO":999,"REV_AT_EPOCH":28601,"BSTAR":0.0011528817,"MEAN_MOTION_DOT":0.00170832,"MEAN_MOTION_DDOT":0},{"OBJECT_NAME":"LEMUR-2-EMBRIONOVIS","OBJECT_ID":"2023-084AQ","EPOCH":"2026-07-14T09:35:04.303968","CLASSIFICATION_TYPE":"U","MEAN_MOTION":15.38217107,"ECCENTRICITY":0.00082461,"INCLINATION":97.6319,"RA_OF_ASC_NODE":340.6609,"ARG_OF_PERICENTER":209.498,"MEAN_ANOMALY":150.58,"EPHEMERIS_TYPE":0,"NORAD_CAT_ID":56970,"ELEMENT_SET_NO":999,"REV_AT_EPOCH":17186,"BSTAR":0.00022445854,"MEAN_MOTION_DOT":0.00008371,"MEAN_MOTION_DDOT":0},{"OBJECT_NAME":"LEMUR-2-DEVERILL-M-T","OBJECT_ID":"2023-100F","EPOCH":"2026-07-14T15:30:55.870272","CLASSIFICATION_TYPE":"U","MEAN_MOTION":15.41075608,"ECCENTRICITY":0.00046885,"INCLINATION":99.4454,"RA_OF_ASC_NODE":242.3642,"ARG_OF_PERICENTER":299.538,"MEAN_ANOMALY":60.5392,"EPHEMERIS_TYPE":0,"NORAD_CAT_ID":57391,"ELEMENT_SET_NO":999,"REV_AT_EPOCH":16547,"BSTAR":0.00037507303,"MEAN_MOTION_DOT":0.00015402,"MEAN_MOTION_DDOT":0},{"OBJECT_NAME":"LEMUR-2-BASS","OBJECT_ID":"2023-174D","EPOCH":"2026-07-14T18:17:24.782496","CLASSIFICATION_TYPE":"U","MEAN_MOTION":15.43985516,"ECCENTRICITY":0.00076953,"INCLINATION":97.385,"RA_OF_ASC_NODE":280.876,"ARG_OF_PERICENTER":79.6377,"MEAN_ANOMALY":280.5738,"EPHEMERIS_TYPE":0,"NORAD_CAT_ID":58259,"ELEMENT_SET_NO":999,"REV_AT_EPOCH":14961,"BSTAR":0.00022693332,"MEAN_MOTION_DOT":0.0001026,"MEAN_MOTION_DDOT":0},{"OBJECT_NAME":"LEMUR-2-JK0903EM1407","OBJECT_ID":"2023-174CJ","EPOCH":"2026-07-14T19:07:21.753120","CLASSIFICATION_TYPE":"U","MEAN_MOTION":15.53054759,"ECCENTRICITY":0.00036527,"INCLINATION":97.3927,"RA_OF_ASC_NODE":287.0724,"ARG_OF_PERICENTER":35.199,"MEAN_ANOMALY":324.9504,"EPHEMERIS_TYPE":0,"NORAD_CAT_ID":58336,"ELEMENT_SET_NO":999,"REV_AT_EPOCH":15001,"BSTAR":0.00027591096,"MEAN_MOTION_DOT":0.00017155,"MEAN_MOTION_DDOT":0},{"OBJECT_NAME":"LEMUR-2-MJR092620","OBJECT_ID":"2023-174CN","EPOCH":"2026-07-14T19:22:51.089664","CLASSIFICATION_TYPE":"U","MEAN_MOTION":15.45853766,"ECCENTRICITY":0.00053293,"INCLINATION":97.3981,"RA_OF_ASC_NODE":286.3639,"ARG_OF_PERICENTER":32.0286,"MEAN_ANOMALY":328.1286,"EPHEMERIS_TYPE":0,"NORAD_CAT_ID":58340,"ELEMENT_SET_NO":999,"REV_AT_EPOCH":14991,"BSTAR":0.00023634604,"MEAN_MOTION_DOT":0.00011388,"MEAN_MOTION_DDOT":0},{"OBJECT_NAME":"LEMUR-2-NIMBUS2000","OBJECT_ID":"2024-022A","EPOCH":"2026-07-14T13:18:09.606240","CLASSIFICATION_TYPE":"U","MEAN_MOTION":15.41099325,"ECCENTRICITY":0.0008815,"INCLINATION":97.408,"RA_OF_ASC_NODE":45.9166,"ARG_OF_PERICENTER":30.9199,"MEAN_ANOMALY":329.2565,"EPHEMERIS_TYPE":0,"NORAD_CAT_ID":58899,"ELEMENT_SET_NO":999,"REV_AT_EPOCH":13648,"BSTAR":0.0003123,"MEAN_MOTION_DOT":0.00012856,"MEAN_MOTION_DDOT":0}]}
