LEMUR-1                 
1 40044U 14033AL  26195.91469812  .00000784  00000+0  95734-4 0  9996
2 40044  97.7909 345.1100 0047802 348.8746  11.1407 14.85336384649581
LEMUR-2-GREENBERG       
1 42837U 17042N   26195.45912462  .00009907  00000+0  32148-3 0  9999
2 42837  97.3823  15.9753 0007194 263.1794  96.8630 15.32137916492567
LEMUR-2-ANDIS           
1 42838U 17042P   26195.74949200  .00012302  00000+0  35384-3 0  9990
2 42838  97.3675  16.5481 0007183 259.4911 100.5524 15.35912431492689
LEMUR-2-MONSON          
1 42839U 17042Q   26195.46214998  .00007974  00000+0  28795-3 0  9996
2 42839  97.4085  15.9085 0005293 249.0733 110.9940 15.28740925492334
LEMUR-2-FURIAUS         
1 42840U 17042R   26195.92904001  .00009828  00000+0  32917-3 0  9991
2 42840  97.3766  14.3354 0006064 331.3156  28.7751 15.31125457492454
LEMUR-2-PETERG          
1 42841U 17042S   26195.48935450  .00011220  00000+0  33253-3 0  9998
2 42841  97.3988  20.5866 0003244 222.8450 137.2541 15.35013227492623
LEMUR-2-DEMBITZ         
1 42842U 17042T   26195.94877824  .00009235  00000+0  30974-3 0  9990
2 42842  97.3822  17.4000 0005053 275.9305  84.1360 15.31105660492598
LEMUR-2-ZACHARY         
1 42845U 17042W   26195.47220841  .00031854  00000+0  51719-3 0  9994
2 42845  97.3570  27.7354 0002507 253.1238 106.9740 15.52670272493439
LEMUR-2-AMANDA-SVANTE   
1 48269U 21034B   26195.86445113  .00019036  00000+0  54551-3 0  9995
2 48269  97.5754 274.9119 0004621 144.0064 216.1491 15.35946605285309
LEMUR-2-SPECIAL-K       
1 48273U 21034F   26195.76158141  .00170832  00000+0  11529-2 0  9990
2 48273  97.5639 284.8161 0006329 214.5828 145.5025 15.74566415286018
LEMUR-2-EMBRIONOVIS     
1 56970U 23084AQ  26195.39935537  .00008371  00000+0  22446-3 0  9990
2 56970  97.6319 340.6609 0008246 209.4980 150.5800 15.38217107171861
LEMUR-2-DEVERILL-M-T    
1 57391U 23100F   26195.64647998  .00015402  00000+0  37507-3 0  9993
2 57391  99.4454 242.3642 0004688 299.5380  60.5392 15.41075608165472
LEMUR-2-BASS            
1 58259U 23174D   26195.76209239  .00010260  00000+0  22693-3 0  9990
2 58259  97.3850 280.8760 0007695  79.6377 280.5738 15.43985516149611
LEMUR-2-JK0903EM1407    
1 58336U 23174CJ  26195.79677955  .00017155  00000+0  27591-3 0  9995
2 58336  97.3927 287.0724 0003652  35.1990 324.9504 15.53054759150015
LEMUR-2-MJR092620       
1 58340U 23174CN  26195.80753576  .00011388  00000+0  23635-3 0  9993
2 58340  97.3981 286.3639 0005329  32.0286 328.1286 15.45853766149910
LEMUR-2-NIMBUS2000      
1 58899U 24022A   26195.55427785  .00012856  00000+0  31230-3 0  9998
2 58899  97.4080  45.9166 0008815  30.9199 329.2565 15.41099325136486
